{"type": "FeatureCollection", "features": [ {"type": "Feature", "properties": {"norad_id": 29973, "name": "FENGYUN 1C DEB", "group": "fengyun-1c-debris", "lat": 80.56855482298204, "lon": -122.17562750901017, "alt_km": 837.6059866715168, "timestamp": "2025-12-13T18:50:04.703479+00:00", "meta": {"OBJECT_NAME": "FENGYUN 1C DEB", "OBJECT_ID": "1999-025KX", "EPOCH": "2025-12-13T06:30:17.511264", "MEAN_MOTION": 14.06538616, "ECCENTRICITY": 0.00593199, "INCLINATION": 98.8425, "RA_OF_ASC_NODE": 347.751, "ARG_OF_PERICENTER": 147.4723, "MEAN_ANOMALY": 226.4347, "EPHEMERIS_TYPE": 0, "CLASSIFICATION_TYPE": "U", "NORAD_CAT_ID": 29973, "ELEMENT_SET_NO": 999, "REV_AT_EPOCH": 96726, "BSTAR": 0.00084765716, "MEAN_MOTION_DOT": 1.383e-05, "MEAN_MOTION_DDOT": 0}, "tle": {"line1": "1 29973U 99025KX  25347.27103601  .00001383  00000+0  84766-3 0  9994", "line2": "2 29973  98.8425 347.7510 0059319 147.4723 226.4347 14.06538616967268"}}, "geometry": {"type": "Point", "coordinates": [-122.17562750901017, 80.56855482298204]}}, {"type": "Feature", "properties": {"norad_id": 29974, "name": "FENGYUN 1C DEB", "group": "fengyun-1c-debris", "lat": -16.59000366437641, "lon": 74.62846775017452, "alt_km": 850.9567223164977, "timestamp": "2025-12-13T18:50:04.703490+00:00", "meta": {"OBJECT_NAME": "FENGYUN 1C DEB", "OBJECT_ID": "1999-025KY", "EPOCH": "2025-12-13T05:37:10.858944", "MEAN_MOTION": 14.1485341, "ECCENTRICITY": 0.00468658, "INCLINATION": 98.8935, "RA_OF_ASC_NODE": 71.4062, "ARG_OF_PERICENTER": 80.8615, "MEAN_ANOMALY": 339.9665, "EPHEMERIS_TYPE": 0, "CLASSIFICATION_TYPE": "U", "NORAD_CAT_ID": 29974, "ELEMENT_SET_NO": 999, "REV_AT_EPOCH": 96932, "BSTAR": 0.0018342673, "MEAN_MOTION_DOT": 3.535e-05, "MEAN_MOTION_DDOT": 0}, "tle": {"line1": "1 29974U 99025KY  25347.23415346  .00003535  00000+0  18343-2 0  9991", "line2": "2 29974  98.8935  71.4062 0046865  80.8615 339.9665 14.14853410969323"}}, "geometry": {"type": "Point", "coordinates": [74.62846775017452, -16.59000366437641]}}, {"type": "Feature", "properties": {"norad_id": 29975, "name": "FENGYUN 1C DEB", "group": "fengyun-1c-debris", "lat": -78.91782166877745, "lon": 86.02828596527137, "alt_km": 914.064787297134, "timestamp": "2025-12-13T18:50:04.703500+00:00", "meta": {"OBJECT_NAME": "FENGYUN 1C DEB", "OBJECT_ID": "1999-025KZ", "EPOCH": "2025-12-13T02:18:38.737152", "MEAN_MOTION": 13.98025774, "ECCENTRICITY": 0.01135344, "INCLINATION": 99.3395, "RA_OF_ASC_NODE": 28.168, "ARG_OF_PERICENTER": 12.7705, "MEAN_ANOMALY": 41.2779, "EPHEMERIS_TYPE": 0, "CLASSIFICATION_TYPE": "U", "NORAD_CAT_ID": 29975, "ELEMENT_SET_NO": 999, "REV_AT_EPOCH": 96442, "BSTAR": 7.9018789e-05, "MEAN_MOTION_DOT": 7.2e-07, "MEAN_MOTION_DDOT": 0}, "tle": {"line1": "1 29975U 99025KZ  25347.09628168  .00000072  00000+0  79019-4 0  9996", "line2": "2 29975  99.3395  28.1680 0113534  12.7705  41.2779 13.98025774964427"}}, "geometry": {"type": "Point", "coordinates": [86.02828596527137, -78.91782166877745]}}, {"type": "Feature", "properties": {"norad_id": 29976, "name": "FENGYUN 1C DEB", "group": "fengyun-1c-debris", "lat": 80.78428076389068, "lon": -119.52253782525018, "alt_km": 1049.2471311518148, "timestamp": "2025-12-13T18:50:04.703511+00:00", "meta": {"OBJECT_NAME": "FENGYUN 1C DEB", "OBJECT_ID": "1999-025LA", "EPOCH": "2025-12-13T06:41:25.259712", "MEAN_MOTION": 13.98109292, "ECCENTRICITY": 0.02674828, "INCLINATION": 98.918, "RA_OF_ASC_NODE": 344.5731, "ARG_OF_PERICENTER": 238.0228, "MEAN_ANOMALY": 190.6435, "EPHEMERIS_TYPE": 0, "CLASSIFICATION_TYPE": "U", "NORAD_CAT_ID": 29976, "ELEMENT_SET_NO": 999, "REV_AT_EPOCH": 96344, "BSTAR": 0.0003898835, "MEAN_MOTION_DOT": 7.07e-06, "MEAN_MOTION_DDOT": 0}, "tle": {"line1": "1 29976U 99025LA  25347.27876458  .00000707  00000+0  38988-3 0  9998", "line2": "2 29976  98.9180 344.5731 0267482 238.0228 190.6435 13.98109292963449"}}, "geometry": {"type": "Point", "coordinates": [-119.52253782525018, 80.78428076389068]}}, {"type": "Feature", "properties": {"norad_id": 29977, "name": "FENGYUN 1C DEB", "group": "fengyun-1c-debris", "lat": 51.48511408043647, "lon": -160.94011434727577, "alt_km": 957.8481387303509, "timestamp": "2025-12-13T18:50:04.703521+00:00", "meta": {"OBJECT_NAME": "FENGYUN 1C DEB", "OBJECT_ID": "1999-025LB", "EPOCH": "2025-12-12T13:40:15.116160", "MEAN_MOTION": 14.05085038, "ECCENTRICITY": 0.01284349, "INCLINATION": 98.3973, "RA_OF_ASC_NODE": 208.6305, "ARG_OF_PERICENTER": 257.4325, "MEAN_ANOMALY": 131.1486, "EPHEMERIS_TYPE": 0, "CLASSIFICATION_TYPE": "U", "NORAD_CAT_ID": 29977, "ELEMENT_SET_NO": 999, "REV_AT_EPOCH": 96358, "BSTAR": 0.0020736353, "MEAN_MOTION_DOT": 3.56e-05, "MEAN_MOTION_DDOT": 0}, "tle": {"line1": "1 29977U 99025LB  25346.56961940  .00003560  00000+0  20736-2 0  9992", "line2": "2 29977  98.3973 208.6305 0128434 257.4325 131.1486 14.05085038963588"}}, "geometry": {"type": "Point", "coordinates": [-160.94011434727577, 51.48511408043647]}}, {"type": "Feature", "properties": {"norad_id": 29978, "name": "FENGYUN 1C DEB", "group": "fengyun-1c-debris", "lat": 75.21710648084706, "lon": -104.57642078632071, "alt_km": 866.3579850676842, "timestamp": "2025-12-13T18:50:04.703532+00:00", "meta": {"OBJECT_NAME": "FENGYUN 1C DEB", "OBJECT_ID": "1999-025LC", "EPOCH": "2025-12-13T02:59:59.759808", "MEAN_MOTION": 13.95906884, "ECCENTRICITY": 0.00766646, "INCLINATION": 99.0613, "RA_OF_ASC_NODE": 37.566, "ARG_OF_PERICENTER": 51.2466, "MEAN_ANOMALY": 336.0055, "EPHEMERIS_TYPE": 0, "CLASSIFICATION_TYPE": "U", "NORAD_CAT_ID": 29978, "ELEMENT_SET_NO": 999, "REV_AT_EPOCH": 96322, "BSTAR": 3.4324778e-05, "MEAN_MOTION_DOT": 5e-08, "MEAN_MOTION_DDOT": 0}, "tle": {"line1": "1 29978U 99025LC  25347.12499722  .00000005  00000+0  34325-4 0  9992", "line2": "2 29978  99.0613  37.5660 0076664  51.2466 336.0055 13.95906884963222"}}, "geometry": {"type": "Point", "coordinates": [-104.57642078632071, 75.21710648084706]}}, {"type": "Feature", "properties": {"norad_id": 29979, "name": "FENGYUN 1C DEB", "group": "fengyun-1c-debris", "lat": -49.840410847262, "lon": -179.10073891818215, "alt_km": 785.7252328605537, "timestamp": "2025-12-13T18:50:04.703543+00:00", "meta": {"OBJECT_NAME": "FENGYUN 1C DEB", "OBJECT_ID": "1999-025LD", "EPOCH": "2025-12-13T01:10:54.136416", "MEAN_MOTION": 14.25964294, "ECCENTRICITY": 0.01075973, "INCLINATION": 98.3705, "RA_OF_ASC_NODE": 10.2448, "ARG_OF_PERICENTER": 162.0328, "MEAN_ANOMALY": 253.5937, "EPHEMERIS_TYPE": 0, "CLASSIFICATION_TYPE": "U", "NORAD_CAT_ID": 29979, "ELEMENT_SET_NO": 999, "REV_AT_EPOCH": 98078, "BSTAR": 0.00061698651, "MEAN_MOTION_DOT": 1.523e-05, "MEAN_MOTION_DDOT": 0}, "tle": {"line1": "1 29979U 99025LD  25347.04923769  .00001523  00000+0  61699-3 0  9996", "line2": "2 29979  98.3705  10.2448 0107597 162.0328 253.5937 14.25964294980782"}}, "geometry": {"type": "Point", "coordinates": [-179.10073891818215, -49.840410847262]}}, {"type": "Feature", "properties": {"norad_id": 29980, "name": "FENGYUN 1C DEB", "group": "fengyun-1c-debris", "lat": 79.89311483797103, "lon": 99.30644254220441, "alt_km": 923.845256143919, "timestamp": "2025-12-13T18:50:04.703553+00:00", "meta": {"OBJECT_NAME": "FENGYUN 1C DEB", "OBJECT_ID": "1999-025LE", "EPOCH": "2025-12-13T05:37:59.866752", "MEAN_MOTION": 14.06315688, "ECCENTRICITY": 0.00869092, "INCLINATION": 98.5514, "RA_OF_ASC_NODE": 156.363, "ARG_OF_PERICENTER": 246.3984, "MEAN_ANOMALY": 295.3185, "EPHEMERIS_TYPE": 0, "CLASSIFICATION_TYPE": "U", "NORAD_CAT_ID": 29980, "ELEMENT_SET_NO": 999, "REV_AT_EPOCH": 96999, "BSTAR": 0.00039243247, "MEAN_MOTION_DOT": 6.28e-06, "MEAN_MOTION_DDOT": 0}, "tle": {"line1": "1 29980U 99025LE  25347.23472068  .00000628  00000+0  39243-3 0  9995", "line2": "2 29980  98.5514 156.3630 0086909 246.3984 295.3185 14.06315688969991"}}, "geometry": {"type": "Point", "coordinates": [99.30644254220441, 79.89311483797103]}}, {"type": "Feature", "properties": {"norad_id": 29982, "name": "FENGYUN 1C DEB", "group": "fengyun-1c-debris", "lat": -0.8122706144471518, "lon": 169.34299845250638, "alt_km": 649.6703948130016, "timestamp": "2025-12-13T18:50:04.703564+00:00", "meta": {"OBJECT_NAME": "FENGYUN 1C DEB", "OBJECT_ID": "1999-025LG", "EPOCH": "2025-12-13T07:56:36.153600", "MEAN_MOTION": 14.66889707, "ECCENTRICITY": 0.0121842, "INCLINATION": 99.4018, "RA_OF_ASC_NODE": 168.6886, "ARG_OF_PERICENTER": 286.4985, "MEAN_ANOMALY": 196.392, "EPHEMERIS_TYPE": 0, "CLASSIFICATION_TYPE": "U", "NORAD_CAT_ID": 29982, "ELEMENT_SET_NO": 999, "REV_AT_EPOCH": 292, "BSTAR": 0.001075623, "MEAN_MOTION_DOT": 6.654e-05, "MEAN_MOTION_DDOT": 0}, "tle": {"line1": "1 29982U 99025LG  25347.33097400  .00006654  00000+0  10756-2 0  9993", "line2": "2 29982  99.4018 168.6886 0121842 286.4985 196.3920 14.66889707  2925"}}, "geometry": {"type": "Point", "coordinates": [169.34299845250638, -0.8122706144471518]}}, {"type": "Feature", "properties": {"norad_id": 29985, "name": "FENGYUN 1C DEB", "group": "fengyun-1c-debris", "lat": 38.72136284296577, "lon": -4.248099714234348, "alt_km": 875.1129402793886, "timestamp": "2025-12-13T18:50:04.703575+00:00", "meta": {"OBJECT_NAME": "FENGYUN 1C DEB", "OBJECT_ID": "1999-025LK", "EPOCH": "2025-12-13T06:46:54.741792", "MEAN_MOTION": 14.10323978, "ECCENTRICITY": 0.00281419, "INCLINATION": 98.7107, "RA_OF_ASC_NODE": 2.326, "ARG_OF_PERICENTER": 207.4511, "MEAN_ANOMALY": 163.6457, "EPHEMERIS_TYPE": 0, "CLASSIFICATION_TYPE": "U", "NORAD_CAT_ID": 29985, "ELEMENT_SET_NO": 999, "REV_AT_EPOCH": 97356, "BSTAR": 7.8393476e-05, "MEAN_MOTION_DOT": 9.7e-07, "MEAN_MOTION_DDOT": 0}, "tle": {"line1": "1 29985U 99025LK  25347.28257803  .00000097  00000+0  78393-4 0  9993", "line2": "2 29985  98.7107   2.3260 0028141 207.4511 163.6457 14.10323978973566"}}, "geometry": {"type": "Point", "coordinates": [-4.248099714234348, 38.72136284296577]}}]}